CTC1_L_00194001-01
1 65718U 24863VC  26037.47803241  .00000000  00000+0  00000-0 0  9996
2 65718  50.0000   0.0000 0000000   0.0000   0.0000 13.56072426    11
CTC1_L_00194001-02
1 65719U 23792PB  26037.47803241  .00000000  00000+0  00000-0 0  9997
2 65719  50.0000   0.0000 0000000   0.0000  90.0000 13.56072426    11
CTC1_L_00194001-03
1 65720U 25419AM  26037.47803241  .00000000  00000+0  00000-0 0  9997
2 65720  50.0000   0.0000 0000000   0.0000 180.0000 13.56072426    13
CTC1_L_00194001-04
1 65721U 23048DJ  26037.47803241  .00000000  00000+0  00000-0 0  9994
2 65721  50.0000   0.0000 0000000   0.0000 270.0000 13.56072426    14
CTC1_L_00194002-01
1 65722U 25697II  26037.47803241  .00000000  00000+0  00000-0 0  9997
2 65722  50.0000  12.0000 0000000   0.0000  12.0000 13.56072426    12
CTC1_L_00194002-02
1 65723U 26317HG  26037.47803241  .00000000  00000+0  00000-0 0  9998
2 65723  50.0000  12.0000 0000000   0.0000 102.0000 13.56072426    13
CTC1_L_00194002-03
1 65724U 25314A   26037.47803241  .00000000  00000+0  00000-0 0  9995
2 65724  50.0000  12.0000 0000000   0.0000 192.0000 13.56072426    13
CTC1_L_00194002-04
1 65725U 24185OS  26037.47803241  .00000000  00000+0  00000-0 0  9991
2 65725  50.0000  12.0000 0000000   0.0000 282.0000 13.56072426    14
CTC1_L_00194003-01
1 65726U 24283GX  26037.47803241  .00000000  00000+0  00000-0 0  9991
2 65726  50.0000  24.0000 0000000   0.0000  24.0000 13.56072426    12
CTC1_L_00194003-02
1 65727U 26399AG  26037.47803241  .00000000  00000+0  00000-0 0  9992
2 65727  50.0000  24.0000 0000000   0.0000 114.0000 13.56072426    13
CTC1_L_00194003-03
1 65728U 25032MR  26037.47803241  .00000000  00000+0  00000-0 0  9996
2 65728  50.0000  24.0000 0000000   0.0000 204.0000 13.56072426    14
CTC1_L_00194003-04
1 65729U 23379BE  26037.47803241  .00000000  00000+0  00000-0 0  9999
2 65729  50.0000  24.0000 0000000   0.0000 294.0000 13.56072426    14
CTC1_L_00194004-01
1 65730U 23001DP  26037.47803241  .00000000  00000+0  00000-0 0  9993
2 65730  50.0000  36.0000 0000000   0.0000  36.0000 13.56072426    13
CTC1_L_00194004-02
1 65731U 26232GW  26037.47803241  .00000000  00000+0  00000-0 0  9993
2 65731  50.0000  36.0000 0000000   0.0000 126.0000 13.56072426    14
CTC1_L_00194004-03
1 65732U 26318OH  26037.47803241  .00000000  00000+0  00000-0 0  9999
2 65732  50.0000  36.0000 0000000   0.0000 216.0000 13.56072426    15
CTC1_L_00194004-04
1 65733U 23554TR  26037.47803241  .00000000  00000+0  00000-0 0  9999
2 65733  50.0000  36.0000 0000000   0.0000 306.0000 13.56072426    16
CTC1_L_00194005-01
1 65734U 25580JE  26037.47803241  .00000000  00000+0  00000-0 0  9991
2 65734  50.0000  48.0000 0000000   0.0000  48.0000 13.56072426    13
CTC1_L_00194005-02
1 65735U 24793IU  26037.47803241  .00000000  00000+0  00000-0 0  9997
2 65735  50.0000  48.0000 0000000   0.0000 138.0000 13.56072426    14
CTC1_L_00194005-03
1 65736U 24582MW  26037.47803241  .00000000  00000+0  00000-0 0  9994
2 65736  50.0000  48.0000 0000000   0.0000 228.0000 13.56072426    15
CTC1_L_00194005-04
1 65737U 23507BT  26037.47803241  .00000000  00000+0  00000-0 0  9991
2 65737  50.0000  48.0000 0000000   0.0000 318.0000 13.56072426    16
CTC1_L_00194006-01
1 65738U 25940TW  26037.47803241  .00000000  00000+0  00000-0 0  9995
2 65738  50.0000  60.0000 0000000   0.0000  60.0000 13.56072426    15
CTC1_L_00194006-02
1 65739U 24265FC  26037.47803241  .00000000  00000+0  00000-0 0  9995
2 65739  50.0000  60.0000 0000000   0.0000 150.0000 13.56072426    16
CTC1_L_00194006-03
1 65740U 22331IY  26037.47803241  .00000000  00000+0  00000-0 0  9999
2 65740  50.0000  60.0000 0000000   0.0000 240.0000 13.56072426    18
CTC1_L_00194006-04
1 65741U 23998HS  26037.47803241  .00000000  00000+0  00000-0 0  9990
2 65741  50.0000  60.0000 0000000   0.0000 330.0000 13.56072426    19
CTC1_L_00194007-01
1 65742U 25657DW  26037.47803241  .00000000  00000+0  00000-0 0  9995
2 65742  50.0000  72.0000 0000000   0.0000  72.0000 13.56072426    16
CTC1_L_00194007-02
1 65743U 26797JQ  26037.47803241  .00000000  00000+0  00000-0 0  9992
2 65743  50.0000  72.0000 0000000   0.0000 162.0000 13.56072426    17
CTC1_L_00194007-03
1 65744U 24991YL  26037.47803241  .00000000  00000+0  00000-0 0  9997
2 65744  50.0000  72.0000 0000000   0.0000 252.0000 13.56072426    18
CTC1_L_00194007-04
1 65745U 25411RX  26037.47803241  .00000000  00000+0  00000-0 0  9996
2 65745  50.0000  72.0000 0000000   0.0000 342.0000 13.56072426    19
CTC1_L_00194008-01
1 65746U 22127LX  26037.47803241  .00000000  00000+0  00000-0 0  9998
2 65746  50.0000  84.0000 0000000   0.0000  84.0000 13.56072426    16
CTC1_L_00194008-02
1 65747U 22054UB  26037.47803241  .00000000  00000+0  00000-0 0  9998
2 65747  50.0000  84.0000 0000000   0.0000 174.0000 13.56072426    17
CTC1_L_00194008-03
1 65748U 22119QQ  26037.47803241  .00000000  00000+0  00000-0 0  9991
2 65748  50.0000  84.0000 0000000   0.0000 264.0000 13.56072426    18
CTC1_L_00194008-04
1 65749U 24839VP  26037.47803241  .00000000  00000+0  00000-0 0  9993
2 65749  50.0000  84.0000 0000000   0.0000 354.0000 13.56072426    19
CTC1_L_00194009-01
1 65750U 23265GF  26037.47803241  .00000000  00000+0  00000-0 0  9997
2 65750  50.0000  96.0000 0000000   0.0000  96.0000 13.56072426    17
CTC1_L_00194009-02
1 65751U 26087KM  26037.47803241  .00000000  00000+0  00000-0 0  9993
2 65751  50.0000  96.0000 0000000   0.0000 186.0000 13.56072426    18
CTC1_L_00194009-03
1 65752U 25604FK  26037.47803241  .00000000  00000+0  00000-0 0  9998
2 65752  50.0000  96.0000 0000000   0.0000 276.0000 13.56072426    19
CTC1_L_00194009-04
1 65753U 25091DX  26037.47803241  .00000000  00000+0  00000-0 0  9999
2 65753  50.0000  96.0000 0000000   0.0000   6.0000 13.56072426    11
CTC1_L_00194010-01
1 65754U 22864GS  26037.47803241  .00000000  00000+0  00000-0 0  9995
2 65754  50.0000 108.0000 0000000   0.0000 108.0000 13.56072426    19
CTC1_L_00194010-02
1 65755U 23560OR  26037.47803241  .00000000  00000+0  00000-0 0  9990
2 65755  50.0000 108.0000 0000000   0.0000 198.0000 13.56072426    19
CTC1_L_00194010-03
1 65756U 26092ZD  26037.47803241  .00000000  00000+0  00000-0 0  9994
2 65756  50.0000 108.0000 0000000   0.0000 288.0000 13.56072426    10
CTC1_L_00194010-04
1 65757U 23409JS  26037.47803241  .00000000  00000+0  00000-0 0  9994
2 65757  50.0000 108.0000 0000000   0.0000  18.0000 13.56072426    12
CTC1_L_00194011-01
1 65758U 23243DS  26037.47803241  .00000000  00000+0  00000-0 0  9991
2 65758  50.0000 120.0000 0000000   0.0000 120.0000 13.56072426    11
CTC1_L_00194011-02
1 65759U 24058SI  26037.47803241  .00000000  00000+0  00000-0 0  9997
2 65759  50.0000 120.0000 0000000   0.0000 210.0000 13.56072426    12
CTC1_L_00194011-03
1 65760U 23270VB  26037.47803241  .00000000  00000+0  00000-0 0  9994
2 65760  50.0000 120.0000 0000000   0.0000 300.0000 13.56072426    14
CTC1_L_00194011-04
1 65761U 24357RQ  26037.47803241  .00000000  00000+0  00000-0 0  9992
2 65761  50.0000 120.0000 0000000   0.0000  30.0000 13.56072426    15
CTC1_L_00194012-01
1 65762U 26121RI  26037.47803241  .00000000  00000+0  00000-0 0  9994
2 65762  50.0000 132.0000 0000000   0.0000 132.0000 13.56072426    12
CTC1_L_00194012-02
1 65763U 22084KS  26037.47803241  .00000000  00000+0  00000-0 0  9999
2 65763  50.0000 132.0000 0000000   0.0000 222.0000 13.56072426    13
CTC1_L_00194012-03
1 65764U 24964NX  26037.47803241  .00000000  00000+0  00000-0 0  9999
2 65764  50.0000 132.0000 0000000   0.0000 312.0000 13.56072426    14
CTC1_L_00194012-04
1 65765U 24105GZ  26037.47803241  .00000000  00000+0  00000-0 0  9997
2 65765  50.0000 132.0000 0000000   0.0000  42.0000 13.56072426    15
CTC1_L_00194013-01
1 65766U 23624YW  26037.47803241  .00000000  00000+0  00000-0 0  9993
2 65766  50.0000 144.0000 0000000   0.0000 144.0000 13.56072426    12
CTC1_L_00194013-02
1 65767U 24066PQ  26037.47803241  .00000000  00000+0  00000-0 0  9995
2 65767  50.0000 144.0000 0000000   0.0000 234.0000 13.56072426    13
CTC1_L_00194013-03
1 65768U 23407IH  26037.47803241  .00000000  00000+0  00000-0 0  9994
2 65768  50.0000 144.0000 0000000   0.0000 324.0000 13.56072426    14
CTC1_L_00194013-04
1 65769U 24019MW  26037.47803241  .00000000  00000+0  00000-0 0  9995
2 65769  50.0000 144.0000 0000000   0.0000  54.0000 13.56072426    15
CTC1_L_00194014-01
1 65770U 24422YX  26037.47803241  .00000000  00000+0  00000-0 0  9995
2 65770  50.0000 156.0000 0000000   0.0000 156.0000 13.56072426    13
CTC1_L_00194014-02
1 65771U 23134WG  26037.47803241  .00000000  00000+0  00000-0 0  9995
2 65771  50.0000 156.0000 0000000   0.0000 246.0000 13.56072426    14
CTC1_L_00194014-03
1 65772U 26403TR  26037.47803241  .00000000  00000+0  00000-0 0  9998
2 65772  50.0000 156.0000 0000000   0.0000 336.0000 13.56072426    15
CTC1_L_00194014-04
1 65773U 26719MG  26037.47803241  .00000000  00000+0  00000-0 0  9999
2 65773  50.0000 156.0000 0000000   0.0000  66.0000 13.56072426    16
CTC1_L_00194015-01
1 65774U 26674B   26037.47803241  .00000000  00000+0  00000-0 0  9990
2 65774  50.0000 168.0000 0000000   0.0000 168.0000 13.56072426    13
CTC1_L_00194015-02
1 65775U 26988DV  26037.47803241  .00000000  00000+0  00000-0 0  9999
2 65775  50.0000 168.0000 0000000   0.0000 258.0000 13.56072426    14
CTC1_L_00194015-03
1 65776U 26777LW  26037.47803241  .00000000  00000+0  00000-0 0  9996
2 65776  50.0000 168.0000 0000000   0.0000 348.0000 13.56072426    15
CTC1_L_00194015-04
1 65777U 25160FL  26037.47803241  .00000000  00000+0  00000-0 0  9992
2 65777  50.0000 168.0000 0000000   0.0000  78.0000 13.56072426    16
CTC1_L_00194016-01
1 65778U 26403BQ  26037.47803241  .00000000  00000+0  00000-0 0  9994
2 65778  50.0000 180.0000 0000000   0.0000 180.0000 13.56072426    15
CTC1_L_00194016-02
1 65779U 24418XX  26037.47803241  .00000000  00000+0  00000-0 0  9999
2 65779  50.0000 180.0000 0000000   0.0000 270.0000 13.56072426    16
